     2.10           G: GLONASS NAV DATA                     RINEX VERSION / TYPE
teqc  2015Jun23                         20210407 02:28:49UTCPGM / RUN BY / DATE
Linux 2.4.21-27.ELsmp|Opteron|gcc -static|Linux x86_64|=+   COMMENT
  2021     1     4   -1.396983861923D-09                    CORR TO SYSTEM TIME
                                                            END OF HEADER
20 21  1  5  2 15  0.0-4.304368048906D-04-0.000000000000D+00 7.200000000000D+03
    1.556313476562D+02-9.404964447021D-01 0.000000000000D+00 0.000000000000D+00
    1.821253759766D+04-2.270682334900D+00 0.000000000000D+00 2.000000000000D+00
   -1.786408447266D+04-2.317399024963D+00 1.862645149231D-09 0.000000000000D+00
21 21  1  5  2 15  0.0-1.781191676855D-04-2.728484105319D-12 7.200000000000D+03
    1.168426904297D+04 1.658468246460D-01 2.793967723846D-09 0.000000000000D+00
    2.265009082031D+04-1.848897933960D-01 9.313225746155D-10 4.000000000000D+00
   -6.170219726562D+02-3.604491233826D+00 9.313225746155D-10 0.000000000000D+00
22 21  1  5  2 15  0.0-9.077414870262D-05-9.094947017729D-13 8.460000000000D+03
    1.497136328125D+04 1.142070770264D+00 3.725290298462D-09 0.000000000000D+00
    1.385862060547D+04 1.778863906860D+00 1.862645149231D-09-3.000000000000D+00
    1.536855468750D+04-2.706871986389D+00-9.313225746155D-10 0.000000000000D+00
22 21  1  5  2 45  0.0-9.077694267035D-05-9.094947017729D-13 9.000000000000D+03
    1.691459228516D+04 9.715261459351D-01 3.725290298462D-09 0.000000000000D+00
    1.635275244141D+04 9.860439300537D-01 9.313225746155D-10-3.000000000000D+00
    9.967269531250D+03-3.255669593811D+00-0.000000000000D+00 0.000000000000D+00
 9 21  1  5  2 45  0.0 1.686159521341D-05 2.728484105319D-12 9.000000000000D+03
   -1.078802636719D+04 1.833810806274D-01 0.000000000000D+00 0.000000000000D+00
    2.311527343750D+04-1.169052124023D-01-9.313225746155D-10-2.000000000000D+00
    1.336225097656D+03 3.537055969238D+00-9.313225746155D-10 0.000000000000D+00
10 21  1  5  2 45  0.0-6.528664380312D-05-0.000000000000D+00 9.000000000000D+03
   -1.380168457031D+03-6.882562637329D-01 0.000000000000D+00 0.000000000000D+00
    2.079384130859D+04 1.891370773315D+00-0.000000000000D+00-7.000000000000D+00
   -1.466481933594D+04 2.755217552185D+00 9.313225746155D-10 0.000000000000D+00
16 21  1  5  2 45  0.0-9.858980774879D-06-9.094947017729D-13 9.000000000000D+03
   -1.418609521484D+04 9.602813720703D-01 0.000000000000D+00 0.000000000000D+00
    1.299519628906D+04-2.080178260803D+00-9.313225746155D-10-1.000000000000D+00
    1.665049218750D+04 2.450428962708D+00-2.793967723846D-09 0.000000000000D+00
20 21  1  5  2 45  0.0-4.304377362132D-04-9.094947017729D-13 9.000000000000D+03
   -2.081513671875D+03-1.542073249817D+00-0.000000000000D+00 0.000000000000D+00
    1.388637109375D+04-2.485536575317D+00-0.000000000000D+00 2.000000000000D+00
   -2.129106542969D+04-1.465526580811D+00 1.862645149231D-09 0.000000000000D+00
21 21  1  5  2 45  0.0-1.781238242984D-04-2.728484105319D-12 9.000000000000D+03
    1.152283007812D+04-3.762426376343D-01 2.793967723846D-09 0.000000000000D+00
    2.163625683594D+04-9.121046066284D-01 9.313225746155D-10 4.000000000000D+00
   -6.997215820312D+03-3.438487052917D+00 9.313225746155D-10 0.000000000000D+00
 6 21  1  5  2 45  0.0 1.904154196382D-04 0.000000000000D+00 9.810000000000D+03
   -1.155091015625D+04-2.690082550049D+00 0.000000000000D+00 0.000000000000D+00
    1.108412988281D+04 4.057273864746D-01-9.313225746155D-10-4.000000000000D+00
    1.983454785156D+04-1.794367790222D+00-2.793967723846D-09 0.000000000000D+00
22 21  1  5  3 15  0.0-9.077973663807D-05-9.094947017729D-13 1.080000000000D+04
    1.830922167969D+04 5.364818572998D-01 3.725290298462D-09 0.000000000000D+00
    1.742118945312D+04 2.143115997314D-01 0.000000000000D+00-3.000000000000D+00
    3.799035156250D+03-3.553624153137D+00 0.000000000000D+00 0.000000000000D+00
 9 21  1  5  3 15  0.0 1.686625182629D-05 2.728484105319D-12 1.080000000000D+04
   -1.023099316406D+04 3.954067230225D-01 0.000000000000D+00 0.000000000000D+00
    2.214953417969D+04-9.600038528442D-01-9.313225746155D-10-2.000000000000D+00
    7.569559082031D+03 3.344092369080D+00-1.862645149231D-09 0.000000000000D+00
 6 21  1  5  3 15  0.0 1.904163509607D-04 0.000000000000D+00 1.080000000000D+04
   -1.587701611328D+04-2.081692695618D+00-9.313225746155D-10 0.000000000000D+00
    1.206086132812D+04 6.473045349121D-01-9.313225746155D-10-4.000000000000D+00
    1.587804199219D+04-2.573164939880D+00-2.793967723846D-09 0.000000000000D+00
10 21  1  5  3 15  0.0-6.528757512569D-05-0.000000000000D+00 1.080000000000D+04
   -2.165930664062D+03-2.084569931030D-01 0.000000000000D+00 0.000000000000D+00
    2.365588623047D+04 1.251292228699D+00-0.000000000000D+00-7.000000000000D+00
   -9.200872070312D+03 3.276359558105D+00 0.000000000000D+00 0.000000000000D+00
16 21  1  5  3 15  0.0-9.860843420029D-06-9.094947017729D-13 1.080000000000D+04
   -1.258392431641D+04 7.841253280640D-01-0.000000000000D+00 0.000000000000D+00
    8.677553222656D+03-2.684861183167D+00-9.313225746155D-10-1.000000000000D+00
    2.035562353516D+04 1.639684677124D+00-2.793967723846D-09 0.000000000000D+00
20 21  1  5  3 15  0.0-4.304395988584D-04-9.094947017729D-13 1.080000000000D+04
   -5.349858398438D+03-2.067318916321D+00-1.862645149231D-09 0.000000000000D+00
    9.444986328125D+03-2.401357650757D+00-0.000000000000D+00 2.000000000000D+00
   -2.307138378906D+04-4.996290206909D-01 1.862645149231D-09 0.000000000000D+00
21 21  1  5  3 15  0.0-1.781294122338D-04-2.728484105319D-12 1.080000000000D+04
    1.024493017578D+04-1.058829307556D+00 9.313225746155D-10 0.000000000000D+00
    1.949753857422D+04-1.422225952148D+00 0.000000000000D+00 4.000000000000D+00
   -1.283532958984D+04-3.006106376648D+00 1.862645149231D-09 0.000000000000D+00
22 21  1  5  3 45  0.0-9.078253060579D-05-9.094947017729D-13 1.260000000000D+04
    1.871408593750D+04-1.169795989990D-01 3.725290298462D-09 0.000000000000D+00
    1.720345312500D+04-4.263172149658D-01 0.000000000000D+00-3.000000000000D+00
   -2.661356445312D+03-3.578240394592D+00 9.313225746155D-10 0.000000000000D+00
 9 21  1  5  3 45  0.0 1.687090843916D-05 2.728484105319D-12 1.260000000000D+04
   -9.510660644531D+03 3.654251098633D-01-0.000000000000D+00 0.000000000000D+00
    1.967969042969D+04-1.769149780273D+00-9.313225746155D-10-2.000000000000D+00
    1.322008691406D+04 2.893672943115D+00-1.862645149231D-09 0.000000000000D+00
 6 21  1  5  3 45  0.0 1.904172822833D-04 0.000000000000D+00 1.260000000000D+04
   -1.894782324219D+04-1.312112808228D+00-1.862645149231D-09 0.000000000000D+00
    1.328082812500D+04 6.675567626953D-01-9.313225746155D-10-4.000000000000D+00
    1.069106835938D+04-3.152628898621D+00-1.862645149231D-09 0.000000000000D+00
10 21  1  5  3 45  0.0-6.528943777084D-05-0.000000000000D+00 1.260000000000D+04
   -2.239319824219D+03 9.134292602539D-02 0.000000000000D+00 0.000000000000D+00
    2.518987304688D+04 4.311857223511D-01-9.313225746155D-10-7.000000000000D+00
   -3.022725585938D+03 3.543503761292D+00-0.000000000000D+00 0.000000000000D+00
21 21  1  5  3 45  0.0-1.781350001693D-04-2.728484105319D-12 1.260000000000D+04
    7.690155273438D+03-1.775880813599D+00 0.000000000000D+00 0.000000000000D+00
    1.667998144531D+04-1.661013603210D+00 0.000000000000D+00 4.000000000000D+00
   -1.767916943359D+04-2.340952873230D+00 1.862645149231D-09 0.000000000000D+00
 7 21  1  5  3 45  0.0-4.204735159874D-05 0.000000000000D+00 1.329000000000D+04
   -3.807945800781D+03-2.775857925415D+00 0.000000000000D+00 0.000000000000D+00
    1.258324414062D+04 1.109248161316D+00-9.313225746155D-10 5.000000000000D+00
    2.188045214844D+04-1.126800537109D+00-2.793967723846D-09 0.000000000000D+00
22 21  1  5  4 15  0.0-9.078439325094D-05-9.094947017729D-13 1.440000000000D+04
    1.780742333984D+04-9.040327072144D-01 1.862645149231D-09 0.000000000000D+00
    1.601673974609D+04-8.511095046997D-01-0.000000000000D+00-3.000000000000D+00
   -8.917149414062D+03-3.327754974365D+00 9.313225746155D-10 0.000000000000D+00
 9 21  1  5  4 15  0.0 1.687556505203D-05 2.728484105319D-12 1.440000000000D+04
   -9.046286132812D+03 1.187372207642D-01-0.000000000000D+00 0.000000000000D+00
    1.586683398438D+04-2.435255050659D+00-9.313225746155D-10-2.000000000000D+00
    1.785268212891D+04 2.220325469971D+00-2.793967723846D-09 0.000000000000D+00
 6 21  1  5  4 15  0.0 1.904182136059D-04 0.000000000000D+00 1.440000000000D+04
   -2.056934619141D+04-4.905757904053D-01-2.793967723846D-09 0.000000000000D+00
    1.431279833984D+04 4.372196197510D-01-0.000000000000D+00-4.000000000000D+00
    4.675572265625D+03-3.487745285034D+00-1.862645149231D-09 0.000000000000D+00
 7 21  1  5  4 15  0.0-4.204735159874D-05-0.000000000000D+00 1.440000000000D+04
   -8.358812011719D+03-2.246084213257D+00-0.000000000000D+00 0.000000000000D+00
    1.479663574219D+04 1.314290046692D+00-9.313225746155D-10 5.000000000000D+00
    1.903411767578D+04-2.015471458435D+00-2.793967723846D-09 0.000000000000D+00
10 21  1  5  4 15  0.0-6.529036909342D-05-0.000000000000D+00 1.440000000000D+04
   -1.977194335938D+03 1.591262817383D-01 0.000000000000D+00 0.000000000000D+00
    2.516269189453D+04-4.642572402954D-01-9.313225746155D-10-7.000000000000D+00
    3.390190917969D+03 3.535461425781D+00-9.313225746155D-10 0.000000000000D+00
21 21  1  5  4 15  0.0-1.781396567822D-04-2.728484105319D-12 1.440000000000D+04
    3.901052734375D+03-2.411085128784D+00-0.000000000000D+00 0.000000000000D+00
    1.368662548828D+04-1.620158195496D+00 0.000000000000D+00 4.000000000000D+00
   -2.115383886719D+04-1.494735717773D+00 1.862645149231D-09 0.000000000000D+00
22 21  1  5  4 45  0.0-9.078718721867D-05-9.094947017729D-13 1.620000000000D+04
    1.544534033203D+04-1.714539527893D+00 9.313225746155D-10 0.000000000000D+00
    1.429751611328D+04-1.014031410217D+00-0.000000000000D+00-3.000000000000D+00
   -1.448726123047D+04-2.821234703064D+00 1.862645149231D-09 0.000000000000D+00
